ORBCOMM FM20            
1 25416U 98046D   25365.91912566  .00001929  00000+0  68226-3 0  9992
2 25416  44.9954 324.5334 0002142 285.1618  74.8993 14.37716671432719
ORBCOMM FM16            
1 25417U 98046E   25365.87827019  .00002749  00000+0  91674-3 0  9990
2 25417  44.9940 313.5803 0004515 241.4086 118.6309 14.39599333432730
ORBCOMM FM15            
1 25418U 98046F   25365.90449317  .00002412  00000+0  81619-3 0  9991
2 25418  44.9973 319.2052 0004374 243.6314 116.4086 14.39225565432727
ORBCOMM FM14            
1 25419U 98046G   25365.24453627  .00002672  00000+0  89154-3 0  9998
2 25419  44.9961 319.9725 0003092 247.1765 112.8757 14.39644207432604
ORBCOMM FM13            
1 25420U 98046H   25365.88527822  .00002046  00000+0  71308-3 0  9996
2 25420  44.9987 326.9196 0004566 216.9850 143.0684 14.38252253431698
ORBCOMM FM21            
1 25475U 98053A   25365.52446550  .00001811  00000+0  64183-3 0  9995
2 25475  45.0090  54.6500 0002118 209.9755 150.0972 14.37842501425642
ORBCOMM FM22            
1 25476U 98053B   25365.47935104  .00002458  00000+0  83409-3 0  9998
2 25476  45.0076  48.0285 0002920 182.2666 177.8170 14.39026868425682
ORBCOMM FM23            
1 25477U 98053C   25365.56594208  .00002120  00000+0  73970-3 0  9993
2 25477  45.0087  56.2587 0002390 185.9027 174.1793 14.38086648425809
