<?xml version="1.0" encoding="UTF-8"?>
<ndm xmlns:xsi="http://www.w3.org/2001/XMLSchema-instance" xsi:noNamespaceSchemaLocation="https://sanaregistry.org/r/ndmxml_unqualified/ndmxml-2.0.0-master-2.0.xsd">
<omm id="CCSDS_OMM_VERS" version="2.0">
<header><CREATION_DATE/><ORIGINATOR/></header><body><segment><metadata><OBJECT_NAME>ORBCOMM FM20</OBJECT_NAME><OBJECT_ID>1998-046D</OBJECT_ID><CENTER_NAME>EARTH</CENTER_NAME><REF_FRAME>TEME</REF_FRAME><TIME_SYSTEM>UTC</TIME_SYSTEM><MEAN_ELEMENT_THEORY>SGP4</MEAN_ELEMENT_THEORY></metadata><data><meanElements><EPOCH>2025-12-31T22:03:32.457024</EPOCH><MEAN_MOTION>14.37716671</MEAN_MOTION><ECCENTRICITY>.00021423</ECCENTRICITY><INCLINATION>44.9954</INCLINATION><RA_OF_ASC_NODE>324.5334</RA_OF_ASC_NODE><ARG_OF_PERICENTER>285.1618</ARG_OF_PERICENTER><MEAN_ANOMALY>74.8993</MEAN_ANOMALY></meanElements><tleParameters><EPHEMERIS_TYPE>0</EPHEMERIS_TYPE><CLASSIFICATION_TYPE>U</CLASSIFICATION_TYPE><NORAD_CAT_ID>25416</NORAD_CAT_ID><ELEMENT_SET_NO>999</ELEMENT_SET_NO><REV_AT_EPOCH>43271</REV_AT_EPOCH><BSTAR>.68225945E-3</BSTAR><MEAN_MOTION_DOT>.1929E-4</MEAN_MOTION_DOT><MEAN_MOTION_DDOT>0</MEAN_MOTION_DDOT></tleParameters></data></segment></body></omm>
<omm id="CCSDS_OMM_VERS" version="2.0">
<header><CREATION_DATE/><ORIGINATOR/></header><body><segment><metadata><OBJECT_NAME>ORBCOMM FM16</OBJECT_NAME><OBJECT_ID>1998-046E</OBJECT_ID><CENTER_NAME>EARTH</CENTER_NAME><REF_FRAME>TEME</REF_FRAME><TIME_SYSTEM>UTC</TIME_SYSTEM><MEAN_ELEMENT_THEORY>SGP4</MEAN_ELEMENT_THEORY></metadata><data><meanElements><EPOCH>2025-12-31T21:04:42.544416</EPOCH><MEAN_MOTION>14.39599333</MEAN_MOTION><ECCENTRICITY>.00045154</ECCENTRICITY><INCLINATION>44.9940</INCLINATION><RA_OF_ASC_NODE>313.5803</RA_OF_ASC_NODE><ARG_OF_PERICENTER>241.4086</ARG_OF_PERICENTER><MEAN_ANOMALY>118.6309</MEAN_ANOMALY></meanElements><tleParameters><EPHEMERIS_TYPE>0</EPHEMERIS_TYPE><CLASSIFICATION_TYPE>U</CLASSIFICATION_TYPE><NORAD_CAT_ID>25417</NORAD_CAT_ID><ELEMENT_SET_NO>999</ELEMENT_SET_NO><REV_AT_EPOCH>43273</REV_AT_EPOCH><BSTAR>.91674307E-3</BSTAR><MEAN_MOTION_DOT>.2749E-4</MEAN_MOTION_DOT><MEAN_MOTION_DDOT>0</MEAN_MOTION_DDOT></tleParameters></data></segment></body></omm>
<omm id="CCSDS_OMM_VERS" version="2.0">
<header><CREATION_DATE/><ORIGINATOR/></header><body><segment><metadata><OBJECT_NAME>ORBCOMM FM15</OBJECT_NAME><OBJECT_ID>1998-046F</OBJECT_ID><CENTER_NAME>EARTH</CENTER_NAME><REF_FRAME>TEME</REF_FRAME><TIME_SYSTEM>UTC</TIME_SYSTEM><MEAN_ELEMENT_THEORY>SGP4</MEAN_ELEMENT_THEORY></metadata><data><meanElements><EPOCH>2025-12-31T21:42:28.209888</EPOCH><MEAN_MOTION>14.39225565</MEAN_MOTION><ECCENTRICITY>.00043744</ECCENTRICITY><INCLINATION>44.9973</INCLINATION><RA_OF_ASC_NODE>319.2052</RA_OF_ASC_NODE><ARG_OF_PERICENTER>243.6314</ARG_OF_PERICENTER><MEAN_ANOMALY>116.4086</MEAN_ANOMALY></meanElements><tleParameters><EPHEMERIS_TYPE>0</EPHEMERIS_TYPE><CLASSIFICATION_TYPE>U</CLASSIFICATION_TYPE><NORAD_CAT_ID>25418</NORAD_CAT_ID><ELEMENT_SET_NO>999</ELEMENT_SET_NO><REV_AT_EPOCH>43272</REV_AT_EPOCH><BSTAR>.81618511E-3</BSTAR><MEAN_MOTION_DOT>.2412E-4</MEAN_MOTION_DOT><MEAN_MOTION_DDOT>0</MEAN_MOTION_DDOT></tleParameters></data></segment></body></omm>
<omm id="CCSDS_OMM_VERS" version="2.0">
<header><CREATION_DATE/><ORIGINATOR/></header><body><segment><metadata><OBJECT_NAME>ORBCOMM FM14</OBJECT_NAME><OBJECT_ID>1998-046G</OBJECT_ID><CENTER_NAME>EARTH</CENTER_NAME><REF_FRAME>TEME</REF_FRAME><TIME_SYSTEM>UTC</TIME_SYSTEM><MEAN_ELEMENT_THEORY>SGP4</MEAN_ELEMENT_THEORY></metadata><data><meanElements><EPOCH>2025-12-31T05:52:07.933728</EPOCH><MEAN_MOTION>14.39644207</MEAN_MOTION><ECCENTRICITY>.0003092</ECCENTRICITY><INCLINATION>44.9961</INCLINATION><RA_OF_ASC_NODE>319.9725</RA_OF_ASC_NODE><ARG_OF_PERICENTER>247.1765</ARG_OF_PERICENTER><MEAN_ANOMALY>112.8757</MEAN_ANOMALY></meanElements><tleParameters><EPHEMERIS_TYPE>0</EPHEMERIS_TYPE><CLASSIFICATION_TYPE>U</CLASSIFICATION_TYPE><NORAD_CAT_ID>25419</NORAD_CAT_ID><ELEMENT_SET_NO>999</ELEMENT_SET_NO><REV_AT_EPOCH>43260</REV_AT_EPOCH><BSTAR>.89154E-3</BSTAR><MEAN_MOTION_DOT>.2672E-4</MEAN_MOTION_DOT><MEAN_MOTION_DDOT>0</MEAN_MOTION_DDOT></tleParameters></data></segment></body></omm>
<omm id="CCSDS_OMM_VERS" version="2.0">
<header><CREATION_DATE/><ORIGINATOR/></header><body><segment><metadata><OBJECT_NAME>ORBCOMM FM13</OBJECT_NAME><OBJECT_ID>1998-046H</OBJECT_ID><CENTER_NAME>EARTH</CENTER_NAME><REF_FRAME>TEME</REF_FRAME><TIME_SYSTEM>UTC</TIME_SYSTEM><MEAN_ELEMENT_THEORY>SGP4</MEAN_ELEMENT_THEORY></metadata><data><meanElements><EPOCH>2025-12-31T21:14:48.038208</EPOCH><MEAN_MOTION>14.38252253</MEAN_MOTION><ECCENTRICITY>.00045666</ECCENTRICITY><INCLINATION>44.9987</INCLINATION><RA_OF_ASC_NODE>326.9196</RA_OF_ASC_NODE><ARG_OF_PERICENTER>216.9850</ARG_OF_PERICENTER><MEAN_ANOMALY>143.0684</MEAN_ANOMALY></meanElements><tleParameters><EPHEMERIS_TYPE>0</EPHEMERIS_TYPE><CLASSIFICATION_TYPE>U</CLASSIFICATION_TYPE><NORAD_CAT_ID>25420</NORAD_CAT_ID><ELEMENT_SET_NO>999</ELEMENT_SET_NO><REV_AT_EPOCH>43169</REV_AT_EPOCH><BSTAR>.71308017E-3</BSTAR><MEAN_MOTION_DOT>.2046E-4</MEAN_MOTION_DOT><MEAN_MOTION_DDOT>0</MEAN_MOTION_DDOT></tleParameters></data></segment></body></omm>
<omm id="CCSDS_OMM_VERS" version="2.0">
<header><CREATION_DATE/><ORIGINATOR/></header><body><segment><metadata><OBJECT_NAME>ORBCOMM FM21</OBJECT_NAME><OBJECT_ID>1998-053A</OBJECT_ID><CENTER_NAME>EARTH</CENTER_NAME><REF_FRAME>TEME</REF_FRAME><TIME_SYSTEM>UTC</TIME_SYSTEM><MEAN_ELEMENT_THEORY>SGP4</MEAN_ELEMENT_THEORY></metadata><data><meanElements><EPOCH>2025-12-31T12:35:13.819200</EPOCH><MEAN_MOTION>14.37842501</MEAN_MOTION><ECCENTRICITY>.00021188</ECCENTRICITY><INCLINATION>45.0090</INCLINATION><RA_OF_ASC_NODE>54.6500</RA_OF_ASC_NODE><ARG_OF_PERICENTER>209.9755</ARG_OF_PERICENTER><MEAN_ANOMALY>150.0972</MEAN_ANOMALY></meanElements><tleParameters><EPHEMERIS_TYPE>0</EPHEMERIS_TYPE><CLASSIFICATION_TYPE>U</CLASSIFICATION_TYPE><NORAD_CAT_ID>25475</NORAD_CAT_ID><ELEMENT_SET_NO>999</ELEMENT_SET_NO><REV_AT_EPOCH>42564</REV_AT_EPOCH><BSTAR>.64182958E-3</BSTAR><MEAN_MOTION_DOT>.1811E-4</MEAN_MOTION_DOT><MEAN_MOTION_DDOT>0</MEAN_MOTION_DDOT></tleParameters></data></segment></body></omm>
<omm id="CCSDS_OMM_VERS" version="2.0">
<header><CREATION_DATE/><ORIGINATOR/></header><body><segment><metadata><OBJECT_NAME>ORBCOMM FM22</OBJECT_NAME><OBJECT_ID>1998-053B</OBJECT_ID><CENTER_NAME>EARTH</CENTER_NAME><REF_FRAME>TEME</REF_FRAME><TIME_SYSTEM>UTC</TIME_SYSTEM><MEAN_ELEMENT_THEORY>SGP4</MEAN_ELEMENT_THEORY></metadata><data><meanElements><EPOCH>2025-12-31T11:30:15.929856</EPOCH><MEAN_MOTION>14.39026868</MEAN_MOTION><ECCENTRICITY>.00029209</ECCENTRICITY><INCLINATION>45.0076</INCLINATION><RA_OF_ASC_NODE>48.0285</RA_OF_ASC_NODE><ARG_OF_PERICENTER>182.2666</ARG_OF_PERICENTER><MEAN_ANOMALY>177.8170</MEAN_ANOMALY></meanElements><tleParameters><EPHEMERIS_TYPE>0</EPHEMERIS_TYPE><CLASSIFICATION_TYPE>U</CLASSIFICATION_TYPE><NORAD_CAT_ID>25476</NORAD_CAT_ID><ELEMENT_SET_NO>999</ELEMENT_SET_NO><REV_AT_EPOCH>42568</REV_AT_EPOCH><BSTAR>.83409141E-3</BSTAR><MEAN_MOTION_DOT>.2458E-4</MEAN_MOTION_DOT><MEAN_MOTION_DDOT>0</MEAN_MOTION_DDOT></tleParameters></data></segment></body></omm>
<omm id="CCSDS_OMM_VERS" version="2.0">
<header><CREATION_DATE/><ORIGINATOR/></header><body><segment><metadata><OBJECT_NAME>ORBCOMM FM23</OBJECT_NAME><OBJECT_ID>1998-053C</OBJECT_ID><CENTER_NAME>EARTH</CENTER_NAME><REF_FRAME>TEME</REF_FRAME><TIME_SYSTEM>UTC</TIME_SYSTEM><MEAN_ELEMENT_THEORY>SGP4</MEAN_ELEMENT_THEORY></metadata><data><meanElements><EPOCH>2025-12-31T13:34:57.395712</EPOCH><MEAN_MOTION>14.38086648</MEAN_MOTION><ECCENTRICITY>.00023903</ECCENTRICITY><INCLINATION>45.0087</INCLINATION><RA_OF_ASC_NODE>56.2587</RA_OF_ASC_NODE><ARG_OF_PERICENTER>185.9027</ARG_OF_PERICENTER><MEAN_ANOMALY>174.1793</MEAN_ANOMALY></meanElements><tleParameters><EPHEMERIS_TYPE>0</EPHEMERIS_TYPE><CLASSIFICATION_TYPE>U</CLASSIFICATION_TYPE><NORAD_CAT_ID>25477</NORAD_CAT_ID><ELEMENT_SET_NO>999</ELEMENT_SET_NO><REV_AT_EPOCH>42580</REV_AT_EPOCH><BSTAR>.73969801E-3</BSTAR><MEAN_MOTION_DOT>.212E-4</MEAN_MOTION_DOT><MEAN_MOTION_DDOT>0</MEAN_MOTION_DDOT></tleParameters></data></segment></body></omm>

</ndm>
